{
  "links" : {
    "next" : "https://api.nasa.gov/neo/rest/v1/neo/browse?page=8&size=20&api_key=jqAGvNAwUIBu4fl9FSOjdm3V4F7hIglRzI6pdX9d",
    "prev" : "https://api.nasa.gov/neo/rest/v1/neo/browse?page=6&size=20&api_key=jqAGvNAwUIBu4fl9FSOjdm3V4F7hIglRzI6pdX9d",
    "self" : "https://api.nasa.gov/neo/rest/v1/neo/browse?page=7&size=20&api_key=jqAGvNAwUIBu4fl9FSOjdm3V4F7hIglRzI6pdX9d"
  },
  "page" : {
    "size" : 20,
    "total_elements" : 20750,
    "total_pages" : 1038,
    "number" : 7
  },
  "near_earth_objects" : [ {
    "links" : {
      "self" : "https://api.nasa.gov/neo/rest/v1/neo/3092408?api_key=jqAGvNAwUIBu4fl9FSOjdm3V4F7hIglRzI6pdX9d"
    },
    "neo_reference_id" : "3092408",
    "name" : "(2001 UT16)",
    "designation" : "2001 UT16",
    "nasa_jpl_url" : "http://ssd.jpl.nasa.gov/sbdb.cgi?sstr=3092408",
    "absolute_magnitude_h" : 25.5,
    "estimated_diameter" : {
      "kilometers" : {
        "estimated_diameter_min" : 0.0211132445,
        "estimated_diameter_max" : 0.0472106499
      },
      "meters" : {
        "estimated_diameter_min" : 21.113244479,
        "estimated_diameter_max" : 47.2106498806
      },
      "miles" : {
        "estimated_diameter_min" : 0.0131191578,
        "estimated_diameter_max" : 0.0293353287
      },
      "feet" : {
        "estimated_diameter_min" : 69.2691770164,
        "estimated_diameter_max" : 154.8905885541
      }
    },
    "is_potentially_hazardous_asteroid" : false,
    "close_approach_data" : [ {
      "close_approach_date" : "2001-10-26",
      "epoch_date_close_approach" : 1004079600000,
      "relative_velocity" : {
        "kilometers_per_second" : "7.7758561277",
        "kilometers_per_hour" : "27993.0820595592",
        "miles_per_hour" : "17393.8125719522"
      },
      "miss_distance" : {
        "astronomical" : "0.0250032346",
        "lunar" : "9.7262582779",
        "kilometers" : "3740430.5",
        "miles" : "2324195.75"
      },
      "orbiting_body" : "Earth"
    } ],
    "orbital_data" : {
      "orbit_id" : "7",
      "orbit_determination_date" : "2017-04-06 09:15:56",
      "first_observation_date" : "2001-10-24",
      "last_observation_date" : "2001-10-25",
      "data_arc_in_days" : 1,
      "observations_used" : 9,
      "orbit_uncertainty" : "9",
      "minimum_orbit_intersection" : ".0248799",
      "jupiter_tisserand_invariant" : "3.491",
      "epoch_osculation" : "2452207.5",
      "eccentricity" : ".5307417637335178",
      "semi_major_axis" : "2.162751814081085",
      "inclination" : "7.02044418710282",
      "ascending_node_longitude" : "210.9834203167811",
      "orbital_period" : "1161.738693171211",
      "perihelion_distance" : "1.014889101757825",
      "perihelion_argument" : "190.3641233900699",
      "aphelion_distance" : "3.310614526404346",
      "perihelion_time" : "2452215.779486417067",
      "mean_anomaly" : "357.4343498002912",
      "mean_motion" : ".3098803561559131",
      "equinox" : "J2000",
      "orbit_class" : {
        "orbit_class_type" : "APO",
        "orbit_class_range" : "a (semi-major axis) > 1.0 AU; q (perihelion) < 1.017 AU",
        "orbit_class_description" : "Near-Earth asteroid orbits which cross the Earth’s orbit similar to that of 1862 Apollo"
      }
    },
    "is_sentry_object" : false
  }, {
    "links" : {
      "self" : "https://api.nasa.gov/neo/rest/v1/neo/3092406?api_key=jqAGvNAwUIBu4fl9FSOjdm3V4F7hIglRzI6pdX9d"
    },
    "neo_reference_id" : "3092406",
    "name" : "(2001 UU16)",
    "designation" : "2001 UU16",
    "nasa_jpl_url" : "http://ssd.jpl.nasa.gov/sbdb.cgi?sstr=3092406",
    "absolute_magnitude_h" : 24.9,
    "estimated_diameter" : {
      "kilometers" : {
        "estimated_diameter_min" : 0.0278326768,
        "estimated_diameter_max" : 0.0622357573
      },
      "meters" : {
        "estimated_diameter_min" : 27.8326768072,
        "estimated_diameter_max" : 62.2357573367
      },
      "miles" : {
        "estimated_diameter_min" : 0.0172944182,
        "estimated_diameter_max" : 0.0386714948
      },
      "feet" : {
        "estimated_diameter_min" : 91.3145593761,
        "estimated_diameter_max" : 204.1855621004
      }
    },
    "is_potentially_hazardous_asteroid" : false,
    "close_approach_data" : [ {
      "close_approach_date" : "2001-10-26",
      "epoch_date_close_approach" : 1004079600000,
      "relative_velocity" : {
        "kilometers_per_second" : "9.3294966963",
        "kilometers_per_hour" : "33586.1881066646",
        "miles_per_hour" : "20869.1511599439"
      },
      "miss_distance" : {
        "astronomical" : "0.0312000009",
        "lunar" : "12.136800766",
        "kilometers" : "4667454",
        "miles" : "2900221.25"
      },
      "orbiting_body" : "Earth"
    }, {
      "close_approach_date" : "2101-09-20",
      "epoch_date_close_approach" : 4156642800000,
      "relative_velocity" : {
        "kilometers_per_second" : "20.3881822162",
        "kilometers_per_hour" : "73397.4559781738",
        "miles_per_hour" : "45606.324799327"
      },
      "miss_distance" : {
        "astronomical" : "0.4780429902",
        "lunar" : "185.9587249756",
        "kilometers" : "71514216",
        "miles" : "44436872"
      },
      "orbiting_body" : "Earth"
    }, {
      "close_approach_date" : "2160-12-28",
      "epoch_date_close_approach" : 6027120000000,
      "relative_velocity" : {
        "kilometers_per_second" : "18.2048154339",
        "kilometers_per_hour" : "65537.3355619385",
        "miles_per_hour" : "40722.3516440278"
      },
      "miss_distance" : {
        "astronomical" : "0.4663292284",
        "lunar" : "181.4020690918",
        "kilometers" : "69761856",
        "miles" : "43348008"
      },
      "orbiting_body" : "Earth"
    } ],
    "orbital_data" : {
      "orbit_id" : "7",
      "orbit_determination_date" : "2017-04-06 09:15:56",
      "first_observation_date" : "2001-10-24",
      "last_observation_date" : "2001-10-26",
      "data_arc_in_days" : 2,
      "observations_used" : 25,
      "orbit_uncertainty" : "7",
      "minimum_orbit_intersection" : ".0312079",
      "jupiter_tisserand_invariant" : "4.032",
      "epoch_osculation" : "2458600.5",
      "eccentricity" : ".4149872051314662",
      "semi_major_axis" : "1.727842009335372",
      "inclination" : "13.28878824158878",
      "ascending_node_longitude" : "31.40271131230638",
      "orbital_period" : "829.5727354399597",
      "perihelion_distance" : "1.010809682972549",
      "perihelion_argument" : "19.12155877650509",
      "aphelion_distance" : "2.444874335698195",
      "perihelion_time" : "2458858.771093892471",
      "mean_anomaly" : "247.9211070600347",
      "mean_motion" : ".433958331343997",
      "equinox" : "J2000",
      "orbit_class" : {
        "orbit_class_type" : "APO",
        "orbit_class_range" : "a (semi-major axis) > 1.0 AU; q (perihelion) < 1.017 AU",
        "orbit_class_description" : "Near-Earth asteroid orbits which cross the Earth’s orbit similar to that of 1862 Apollo"
      }
    },
    "is_sentry_object" : false
  }, {
    "links" : {
      "self" : "https://api.nasa.gov/neo/rest/v1/neo/3092414?api_key=jqAGvNAwUIBu4fl9FSOjdm3V4F7hIglRzI6pdX9d"
    },
    "neo_reference_id" : "3092414",
    "name" : "(2001 UD18)",
    "designation" : "2001 UD18",
    "nasa_jpl_url" : "http://ssd.jpl.nasa.gov/sbdb.cgi?sstr=3092414",
    "absolute_magnitude_h" : 27.6,
    "estimated_diameter" : {
      "kilometers" : {
        "estimated_diameter_min" : 0.0080270317,
        "estimated_diameter_max" : 0.0179489885
      },
      "meters" : {
        "estimated_diameter_min" : 8.0270316728,
        "estimated_diameter_max" : 17.948988478
      },
      "miles" : {
        "estimated_diameter_min" : 0.0049877647,
        "estimated_diameter_max" : 0.0111529809
      },
      "feet" : {
        "estimated_diameter_min" : 26.3354065935,
        "estimated_diameter_max" : 58.8877593581
      }
    },
    "is_potentially_hazardous_asteroid" : false,
    "close_approach_data" : [ {
      "close_approach_date" : "2001-10-26",
      "epoch_date_close_approach" : 1004079600000,
      "relative_velocity" : {
        "kilometers_per_second" : "5.9492091445",
        "kilometers_per_hour" : "21417.1529201239",
        "miles_per_hour" : "13307.7859352848"
      },
      "miss_distance" : {
        "astronomical" : "0.0129956247",
        "lunar" : "5.0552983284",
        "kilometers" : "1944117.875",
        "miles" : "1208018.875"
      },
      "orbiting_body" : "Earth"
    } ],
    "orbital_data" : {
      "orbit_id" : "7",
      "orbit_determination_date" : "2017-04-06 09:15:55",
      "first_observation_date" : "2001-10-26",
      "last_observation_date" : "2001-10-27",
      "data_arc_in_days" : 1,
      "observations_used" : 8,
      "orbit_uncertainty" : "8",
      "minimum_orbit_intersection" : ".0129649",
      "jupiter_tisserand_invariant" : "3.920",
      "epoch_osculation" : "2452209.5",
      "eccentricity" : ".4459690453141558",
      "semi_major_axis" : "1.817133631988825",
      "inclination" : "2.788203067390463",
      "ascending_node_longitude" : "211.9609920580912",
      "orbital_period" : "894.7026560543605",
      "perihelion_distance" : "1.006748280922524",
      "perihelion_argument" : "183.3633594810378",
      "aphelion_distance" : "2.627518983055126",
      "perihelion_time" : "2452210.843710660907",
      "mean_anomaly" : "359.4593334057375",
      "mean_motion" : ".4023683148405978",
      "equinox" : "J2000",
      "orbit_class" : {
        "orbit_class_type" : "APO",
        "orbit_class_range" : "a (semi-major axis) > 1.0 AU; q (perihelion) < 1.017 AU",
        "orbit_class_description" : "Near-Earth asteroid orbits which cross the Earth’s orbit similar to that of 1862 Apollo"
      }
    },
    "is_sentry_object" : false
  } ]
}